[
    {
        "Altitude(m)": 576959.0452619169,
        "Argument of Periapsis(deg)": -0.022603160782972403,
        "Eccentricity": 0.0,
        "Inclination(deg)": 97.0,
        "Latitude(deg)": 82.88187019717319,
        "Longitude(deg)": -174.4204827701721,
        "Mean Anomaly(deg)": 91.5142432691875,
        "RAAN(deg)": 30.005947053618513,
        "Satellite Name": "Starlink Shell 3 1651",
        "Satellite Number": 1651,
        "Semi-Major Axis(m)": 6938478.169268562,
        "Time(s)": 570
    },
    {
        "Altitude(m)": 576949.3770112186,
        "Argument of Periapsis(deg)": -0.02299970746337543,
        "Eccentricity": 0.0,
        "Inclination(deg)": 97.0,
        "Latitude(deg)": 82.72719805640375,
        "Longitude(deg)": -179.2778119890469,
        "Mean Anomaly(deg)": 92.13971946689253,
        "RAAN(deg)": 30.006051387892512,
        "Satellite Name": "Starlink Shell 3 1651",
        "Satellite Number": 1651,
        "Semi-Major Axis(m)": 6938478.169268562,
        "Time(s)": 580
    },
    {
        "Altitude(m)": 576936.3410666935,
        "Argument of Periapsis(deg)": -0.023396254143778456,
        "Eccentricity": 0.0,
        "Inclination(deg)": 97.0,
        "Latitude(deg)": 82.5239892444986,
        "Longitude(deg)": 176.09463067432645,
        "Mean Anomaly(deg)": 92.76519566459757,
        "RAAN(deg)": 30.00615572216653,
        "Satellite Name": "Starlink Shell 3 1651",
        "Satellite Number": 1651,
        "Semi-Major Axis(m)": 6938478.169268562,
        "Time(s)": 590
    },
    {
        "Altitude(m)": 576919.9448040974,
        "Argument of Periapsis(deg)": -0.023792800824181483,
        "Eccentricity": 0.0,
        "Inclination(deg)": 97.0,
        "Latitude(deg)": 82.27607164758773,
        "Longitude(deg)": 171.73390249335387,
        "Mean Anomaly(deg)": 93.39067186230263,
        "RAAN(deg)": 30.00626005644054,
        "Satellite Name": "Starlink Shell 3 1651",
        "Satellite Number": 1651,
        "Semi-Major Axis(m)": 6938478.169268562,
        "Time(s)": 600
    },
    {
        "Altitude(m)": 576900.1974929906,
        "Argument of Periapsis(deg)": -0.024189347504584503,
        "Eccentricity": 0.0,
        "Inclination(deg)": 97.0,
        "Latitude(deg)": 81.98759184635115,
        "Longitude(deg)": 167.6610476074596,
        "Mean Anomaly(deg)": 94.01614806000767,
        "RAAN(deg)": 30.006364390714545,
        "Satellite Name": "Starlink Shell 3 1651",
        "Satellite Number": 1651,
        "Semi-Major Axis(m)": 6938478.169268562,
        "Time(s)": 610
    },
    {
        "Altitude(m)": 576877.1102923823,
        "Argument of Periapsis(deg)": -0.02458589418498753,
        "Eccentricity": 0.0,
        "Inclination(deg)": 97.0,
        "Latitude(deg)": 81.6627564722767,
        "Longitude(deg)": 163.8832390610713,
        "Mean Anomaly(deg)": 94.64162425771273,
        "RAAN(deg)": 30.006468724988554,
        "Satellite Name": "Starlink Shell 3 1651",
        "Satellite Number": 1651,
        "Semi-Major Axis(m)": 6938478.169268562,
        "Time(s)": 620
    },
    {
        "Altitude(m)": 576850.6962455107,
        "Argument of Periapsis(deg)": -0.024982440865390556,
        "Eccentricity": 0.0,
        "Inclination(deg)": 97.0,
        "Latitude(deg)": 81.30563631308189,
        "Longitude(deg)": 160.39678145516413,
        "Mean Anomaly(deg)": 95.26710045541776,
        "RAAN(deg)": 30.006573059262564,
        "Satellite Name": "Starlink Shell 3 1651",
        "Satellite Number": 1651,
        "Semi-Major Axis(m)": 6938478.169268562,
        "Time(s)": 630
    },
    {
        "Altitude(m)": 576820.9702737159,
        "Argument of Periapsis(deg)": -0.025378987545793576,
        "Eccentricity": 0.0,
        "Inclination(deg)": 97.0,
        "Latitude(deg)": 80.92003644222764,
        "Longitude(deg)": 157.1902433102414,
        "Mean Anomaly(deg)": 95.89257665312279,
        "RAAN(deg)": 30.00667739353657,
        "Satellite Name": "Starlink Shell 3 1651",
        "Satellite Number": 1651,
        "Semi-Major Axis(m)": 6938478.169268562,
        "Time(s)": 640
    },
    {
        "Altitude(m)": 576787.9491694457,
        "Argument of Periapsis(deg)": -0.025775534226196602,
        "Eccentricity": 0.0,
        "Inclination(deg)": 97.0,
        "Latitude(deg)": 80.50942386918368,
        "Longitude(deg)": 154.24724755754198,
        "Mean Anomaly(deg)": 96.51805285082783,
        "RAAN(deg)": 30.00678172781058,
        "Satellite Name": "Starlink Shell 3 1651",
        "Satellite Number": 1651,
        "Semi-Major Axis(m)": 6938478.169268562,
        "Time(s)": 650
    },
    {
        "Altitude(m)": 576751.6515883899,
        "Argument of Periapsis(deg)": -0.026172080906599626,
        "Eccentricity": 0.0,
        "Inclination(deg)": 97.0,
        "Latitude(deg)": 80.07689918749972,
        "Longitude(deg)": 151.54871271377348,
        "Mean Anomaly(deg)": 97.14352904853287,
        "RAAN(deg)": 30.006886062084593,
        "Satellite Name": "Starlink Shell 3 1651",
        "Satellite Number": 1651,
        "Semi-Major Axis(m)": 6938478.169268562,
        "Time(s)": 660
    },
    {
        "Altitude(m)": 576712.0980406983,
        "Argument of Periapsis(deg)": -0.026568627587002652,
        "Eccentricity": 0.0,
        "Inclination(deg)": 97.0,
        "Latitude(deg)": 79.62519842057328,
        "Longitude(deg)": 149.07451075396094,
        "Mean Anomaly(deg)": 97.76900524623792,
        "RAAN(deg)": 30.006990396358596,
        "Satellite Name": "Starlink Shell 3 1651",
        "Satellite Number": 1651,
        "Semi-Major Axis(m)": 6938478.169268562,
        "Time(s)": 670
    },
    {
        "Altitude(m)": 576669.3108813813,
        "Argument of Periapsis(deg)": -0.02696517426740568,
        "Eccentricity": 0.0,
        "Inclination(deg)": 97.0,
        "Latitude(deg)": 79.15671343844538,
        "Longitude(deg)": 146.80460634306334,
        "Mean Anomaly(deg)": 98.39448144394296,
        "RAAN(deg)": 30.00709473063261,
        "Satellite Name": "Starlink Shell 3 1651",
        "Satellite Number": 1651,
        "Semi-Major Axis(m)": 6938478.169268562,
        "Time(s)": 680
    },
    {
        "Altitude(m)": 576623.3142998052,
        "Argument of Periapsis(deg)": -0.0273617209478087,
        "Eccentricity": 0.0,
        "Inclination(deg)": 97.0,
        "Latitude(deg)": 78.67352225219818,
        "Longitude(deg)": 144.719784696683,
        "Mean Anomaly(deg)": 99.01995764164802,
        "RAAN(deg)": 30.00719906490661,
        "Satellite Name": "Starlink Shell 3 1651",
        "Satellite Number": 1651,
        "Semi-Major Axis(m)": 6938478.169268562,
        "Time(s)": 690
    },
    {
        "Altitude(m)": 576574.1343083159,
        "Argument of Periapsis(deg)": -0.027758267628211725,
        "Eccentricity": 0.0,
        "Inclination(deg)": 97.0,
        "Latitude(deg)": 78.17742325203422,
        "Longitude(deg)": 142.80207301641641,
        "Mean Anomaly(deg)": 99.64543383935307,
        "RAAN(deg)": 30.007303399180625,
        "Satellite Name": "Starlink Shell 3 1651",
        "Satellite Number": 1651,
        "Semi-Major Axis(m)": 6938478.169268562,
        "Time(s)": 700
    },
    {
        "Altitude(m)": 576521.7987300353,
        "Argument of Periapsis(deg)": -0.028154814308614752,
        "Eccentricity": 0.0,
        "Inclination(deg)": 97.0,
        "Latitude(deg)": 77.66996965777125,
        "Longitude(deg)": 141.03494575464103,
        "Mean Anomaly(deg)": 100.2709100370581,
        "RAAN(deg)": 30.007407733454635,
        "Satellite Name": "Starlink Shell 3 1651",
        "Satellite Number": 1651,
        "Semi-Major Axis(m)": 6938478.169268562,
        "Time(s)": 710
    },
    {
        "Altitude(m)": 576466.3371857549,
        "Argument of Periapsis(deg)": -0.02855136098901778,
        "Eccentricity": 0.0,
        "Inclination(deg)": 97.0,
        "Latitude(deg)": 77.15250204352554,
        "Longitude(deg)": 139.40338865481445,
        "Mean Anomaly(deg)": 100.89638623476316,
        "RAAN(deg)": 30.00751206772864,
        "Satellite Name": "Starlink Shell 3 1651",
        "Satellite Number": 1651,
        "Semi-Major Axis(m)": 6938478.169268562,
        "Time(s)": 720
    },
    {
        "Altitude(m)": 576407.7810800184,
        "Argument of Periapsis(deg)": -0.028947907669420805,
        "Eccentricity": 0.0,
        "Inclination(deg)": 97.0,
        "Latitude(deg)": 76.62617786786032,
        "Longitude(deg)": 137.89387296206644,
        "Mean Anomaly(deg)": 101.5218624324682,
        "RAAN(deg)": 30.00761640200265,
        "Satellite Name": "Starlink Shell 3 1651",
        "Satellite Number": 1651,
        "Semi-Major Axis(m)": 6938478.169268562,
        "Time(s)": 730
    },
    {
        "Altitude(m)": 576346.1635863298,
        "Argument of Periapsis(deg)": -0.029344454349823825,
        "Eccentricity": 0.0,
        "Inclination(deg)": 97.0,
        "Latitude(deg)": 76.0919976144027,
        "Longitude(deg)": 136.49427541649328,
        "Mean Anomaly(deg)": 102.14733863017324,
        "RAAN(deg)": 30.007720736276664,
        "Satellite Name": "Starlink Shell 3 1651",
        "Satellite Number": 1651,
        "Semi-Major Axis(m)": 6938478.169268562,
        "Time(s)": 740
    },
    {
        "Altitude(m)": 576281.5196315335,
        "Argument of Periapsis(deg)": -0.029741001030226845,
        "Eccentricity": 0.0,
        "Inclination(deg)": 97.0,
        "Latitude(deg)": 75.55082754497184,
        "Longitude(deg)": 135.1937720964549,
        "Mean Anomaly(deg)": 102.77281482787829,
        "RAAN(deg)": 30.007825070550666,
        "Satellite Name": "Starlink Shell 3 1651",
        "Satellite Number": 1651,
        "Semi-Major Axis(m)": 6938478.169268562,
        "Time(s)": 750
    }
]